{
  "type": "FeatureCollection",
  "features": [
    {
      "type": "Feature",
      "properties": {
        "norad_id": 66863,
        "name": "STARLINK-36134",
        "group": "last-30-days",
        "lat": -41.134115853367135,
        "lon": -31.079009785580492,
        "alt_km": 417.74738360545325,
        "timestamp": "2025-12-26T14:28:46.396764+00:00",
        "meta_object_name": "STARLINK-36134",
        "meta_object_id": "2025-281R",
        "meta_epoch": "2025-12-26T06:00:02.999808",
        "meta_mean_motion": 15.50535993,
        "meta_eccentricity": 9.568e-05,
        "meta_inclination": 43.0003,
        "meta_ra_of_asc_node": 40.5862,
        "meta_arg_of_pericenter": 272.766,
        "meta_mean_anomaly": 198.1151,
        "meta_ephemeris_type": 0,
        "meta_classification_type": "U",
        "meta_norad_cat_id": 66863,
        "meta_element_set_no": 999,
        "meta_rev_at_epoch": 356,
        "meta_bstar": 0.00057351263,
        "meta_mean_motion_dot": 0.00033395,
        "meta_mean_motion_ddot": 0,
        "tle_line1": "1 66863U 25281R   25360.25003472  .00033395  00000+0  57351-3 0  9992",
        "tle_line2": "2 66863  43.0003  40.5862 0000956 272.7660 198.1151 15.50535993  3561"
      },
      "geometry": {
        "type": "Point",
        "coordinates": [
          -31.079009785580492,
          -41.134115853367135
        ]
      }
    },
    {
      "type": "Feature",
      "properties": {
        "norad_id": 66864,
        "name": "STARLINK-36070",
        "group": "last-30-days",
        "lat": -40.673603041623466,
        "lon": -28.73307489471846,
        "alt_km": 417.8223953181987,
        "timestamp": "2025-12-26T14:28:46.396773+00:00",
        "meta_object_name": "STARLINK-36070",
        "meta_object_id": "2025-281S",
        "meta_epoch": "2025-12-26T06:00:02.999808",
        "meta_mean_motion": 15.50511514,
        "meta_eccentricity": 0.00010884,
        "meta_inclination": 43.0001,
        "meta_ra_of_asc_node": 40.5805,
        "meta_arg_of_pericenter": 248.8129,
        "meta_mean_anomaly": 223.9293,
        "meta_ephemeris_type": 0,
        "meta_classification_type": "U",
        "meta_norad_cat_id": 66864,
        "meta_element_set_no": 999,
        "meta_rev_at_epoch": 359,
        "meta_bstar": 0.00071070517,
        "meta_mean_motion_dot": 0.00041472,
        "meta_mean_motion_ddot": 0,
        "tle_line1": "1 66864U 25281S   25360.25003472  .00041472  00000+0  71071-3 0  9993",
        "tle_line2": "2 66864  43.0001  40.5805 0001088 248.8129 223.9293 15.50511514  3598"
      },
      "geometry": {
        "type": "Point",
        "coordinates": [
          -28.73307489471846,
          -40.673603041623466
        ]
      }
    },
    {
      "type": "Feature",
      "properties": {
        "norad_id": 66865,
        "name": "STARLINK-36117",
        "group": "last-30-days",
        "lat": -39.53975764047937,
        "lon": -23.853535852516337,
        "alt_km": 417.4511562794687,
        "timestamp": "2025-12-26T14:28:46.396784+00:00",
        "meta_object_name": "STARLINK-36117",
        "meta_object_id": "2025-281T",
        "meta_epoch": "2025-12-26T06:00:02.999808",
        "meta_mean_motion": 15.5053479,
        "meta_eccentricity": 0.00013061,
        "meta_inclination": 43.0003,
        "meta_ra_of_asc_node": 40.5717,
        "meta_arg_of_pericenter": 274.5757,
        "meta_mean_anomaly": 202.0545,
        "meta_ephemeris_type": 0,
        "meta_classification_type": "U",
        "meta_norad_cat_id": 66865,
        "meta_element_set_no": 999,
        "meta_rev_at_epoch": 356,
        "meta_bstar": 0.0006436581,
        "meta_mean_motion_dot": 0.0003754,
        "meta_mean_motion_ddot": 0,
        "tle_line1": "1 66865U 25281T   25360.25003472  .00037540  00000+0  64366-3 0  9994",
        "tle_line2": "2 66865  43.0003  40.5717 0001306 274.5757 202.0545 15.50534790  3565"
      },
      "geometry": {
        "type": "Point",
        "coordinates": [
          -23.853535852516337,
          -39.53975764047937
        ]
      }
    },
    {
      "type": "Feature",
      "properties": {
        "norad_id": 66866,
        "name": "STARLINK-36126",
        "group": "last-30-days",
        "lat": -38.93392831833527,
        "lon": -21.60778091464657,
        "alt_km": 417.84539534062515,
        "timestamp": "2025-12-26T14:28:46.396794+00:00",
        "meta_object_name": "STARLINK-36126",
        "meta_object_id": "2025-281U",
        "meta_epoch": "2025-12-26T06:00:02.999808",
        "meta_mean_motion": 15.50512425,
        "meta_eccentricity": 0.00010548,
        "meta_inclination": 43,
        "meta_ra_of_asc_node": 40.5664,
        "meta_arg_of_pericenter": 243.7909,
        "meta_mean_anomaly": 234.7086,
        "meta_ephemeris_type": 0,
        "meta_classification_type": "U",
        "meta_norad_cat_id": 66866,
        "meta_element_set_no": 999,
        "meta_rev_at_epoch": 359,
        "meta_bstar": 0.00073851963,
        "meta_mean_motion_dot": 0.00043119,
        "meta_mean_motion_ddot": 0,
        "tle_line1": "1 66866U 25281U   25360.25003472  .00043119  00000+0  73852-3 0  9994",
        "tle_line2": "2 66866  43.0000  40.5664 0001054 243.7909 234.7086 15.50512425  3597"
      },
      "geometry": {
        "type": "Point",
        "coordinates": [
          -21.60778091464657,
          -38.93392831833527
        ]
      }
    },
    {
      "type": "Feature",
      "properties": {
        "norad_id": 66867,
        "name": "STARLINK-36101",
        "group": "last-30-days",
        "lat": -38.22994400981512,
        "lon": -19.216775791355836,
        "alt_km": 417.8957558755037,
        "timestamp": "2025-12-26T14:28:46.396804+00:00",
        "meta_object_name": "STARLINK-36101",
        "meta_object_id": "2025-281V",
        "meta_epoch": "2025-12-26T06:00:02.999808",
        "meta_mean_motion": 15.50514094,
        "meta_eccentricity": 0.00010872,
        "meta_inclination": 43.0001,
        "meta_ra_of_asc_node": 40.5627,
        "meta_arg_of_pericenter": 234.1565,
        "meta_mean_anomaly": 246.3388,
        "meta_ephemeris_type": 0,
        "meta_classification_type": "U",
        "meta_norad_cat_id": 66867,
        "meta_element_set_no": 999,
        "meta_rev_at_epoch": 339,
        "meta_bstar": 0.0008560945,
        "meta_mean_motion_dot": 0.00050086,
        "meta_mean_motion_ddot": 0,
        "tle_line1": "1 66867U 25281V   25360.25003472  .00050086  00000+0  85609-3 0  9999",
        "tle_line2": "2 66867  43.0001  40.5627 0001087 234.1565 246.3388 15.50514094  3392"
      },
      "geometry": {
        "type": "Point",
        "coordinates": [
          -19.216775791355836,
          -38.22994400981512
        ]
      }
    },
    {
      "type": "Feature",
      "properties": {
        "norad_id": 66868,
        "name": "STARLINK-36108",
        "group": "last-30-days",
        "lat": -37.548309439490815,
        "lon": -17.087049407789014,
        "alt_km": 417.703494391013,
        "timestamp": "2025-12-26T14:28:46.396816+00:00",
        "meta_object_name": "STARLINK-36108",
        "meta_object_id": "2025-281W",
        "meta_epoch": "2025-12-26T06:00:02.999808",
        "meta_mean_motion": 15.50507376,
        "meta_eccentricity": 0.00011704,
        "meta_inclination": 43,
        "meta_ra_of_asc_node": 40.5565,
        "meta_arg_of_pericenter": 251.1491,
        "meta_mean_anomaly": 231.1795,
        "meta_ephemeris_type": 0,
        "meta_classification_type": "U",
        "meta_norad_cat_id": 66868,
        "meta_element_set_no": 999,
        "meta_rev_at_epoch": 339,
        "meta_bstar": 0.00075906894,
        "meta_mean_motion_dot": 0.00044328,
        "meta_mean_motion_ddot": 0,
        "tle_line1": "1 66868U 25281W   25360.25003472  .00044328  00000+0  75907-3 0  9992",
        "tle_line2": "2 66868  43.0000  40.5565 0001170 251.1491 231.1795 15.50507376  3392"
      },
      "geometry": {
        "type": "Point",
        "coordinates": [
          -17.087049407789014,
          -37.548309439490815
        ]
      }
    },
    {
      "type": "Feature",
      "properties": {
        "norad_id": 66869,
        "name": "STARLINK-36092",
        "group": "last-30-days",
        "lat": -36.79208990857355,
        "lon": -14.891679653389605,
        "alt_km": 417.74548761201095,
        "timestamp": "2025-12-26T14:28:46.396826+00:00",
        "meta_object_name": "STARLINK-36092",
        "meta_object_id": "2025-281X",
        "meta_epoch": "2025-12-26T06:00:02.999808",
        "meta_mean_motion": 15.50503968,
        "meta_eccentricity": 0.00011575,
        "meta_inclination": 43.0001,
        "meta_ra_of_asc_node": 40.5517,
        "meta_arg_of_pericenter": 246.8703,
        "meta_mean_anomaly": 237.3742,
        "meta_ephemeris_type": 0,
        "meta_classification_type": "U",
        "meta_norad_cat_id": 66869,
        "meta_element_set_no": 999,
        "meta_rev_at_epoch": 359,
        "meta_bstar": 0.00073976191,
        "meta_mean_motion_dot": 0.0004318,
        "meta_mean_motion_ddot": 0,
        "tle_line1": "1 66869U 25281X   25360.25003472  .00043180  00000+0  73976-3 0  9992",
        "tle_line2": "2 66869  43.0001  40.5517 0001157 246.8703 237.3742 15.50503968  3598"
      },
      "geometry": {
        "type": "Point",
        "coordinates": [
          -14.891679653389605,
          -36.79208990857355
        ]
      }
    }
  ]
}